{
    "links": {
        "self": "http://www.neowsapp.com/rest/v1/neo/3771587?api_key=iIulBulltgU6a56xZRHN4H3l9WmuAYTsLGpBGhQ2"
    },
    "id": "3771587",
    "neo_reference_id": "3771587",
    "name": "(2017 FT)",
    "designation": "2017 FT",
    "nasa_jpl_url": "http://ssd.jpl.nasa.gov/sbdb.cgi?sstr=3771587",
    "absolute_magnitude_h": 23.8,
    "estimated_diameter": {
        "kilometers": {
            "estimated_diameter_min": 0.046190746,
            "estimated_diameter_max": 0.1032856481
        },
        "meters": {
            "estimated_diameter_min": 46.1907460282,
            "estimated_diameter_max": 103.2856480504
        },
        "miles": {
            "estimated_diameter_min": 0.0287015901,
            "estimated_diameter_max": 0.0641787064
        },
        "feet": {
            "estimated_diameter_min": 151.544447199,
            "estimated_diameter_max": 338.8636855496
        }
    },
    "is_potentially_hazardous_asteroid": false,
    "close_approach_data": [
        {
            "close_approach_date": "2012-10-17",
            "close_approach_date_full": "2012-Oct-17 15:21",
            "epoch_date_close_approach": 1350487260000,
            "relative_velocity": {
                "kilometers_per_second": "12.3332301393",
                "kilometers_per_hour": "44399.6285013864",
                "miles_per_hour": "27588.202498542"
            },
            "miss_distance": {
                "astronomical": "0.3386911597",
                "lunar": "131.7508611233",
                "kilometers": "50667476.078949839",
                "miles": "31483309.7349882182"
            },
            "orbiting_body": "Earth"
        },
        {
            "close_approach_date": "2013-03-29",
            "close_approach_date_full": "2013-Mar-29 16:38",
            "epoch_date_close_approach": 1364575080000,
            "relative_velocity": {
                "kilometers_per_second": "16.0456732443",
                "kilometers_per_hour": "57764.4236793101",
                "miles_per_hour": "35892.5664800691"
            },
            "miss_distance": {
                "astronomical": "0.3308646562",
                "lunar": "128.7063512618",
                "kilometers": "49496647.825802294",
                "miles": "30755790.7939838972"
            },
            "orbiting_body": "Earth"
        },
        {
            "close_approach_date": "2016-11-10",
            "close_approach_date_full": "2016-Nov-10 17:36",
            "epoch_date_close_approach": 1478799360000,
            "relative_velocity": {
                "kilometers_per_second": "11.9610430283",
                "kilometers_per_hour": "43059.7549017018",
                "miles_per_hour": "26755.6571498935"
            },
            "miss_distance": {
                "astronomical": "0.4586133921",
                "lunar": "178.4006095269",
                "kilometers": "68607586.611634827",
                "miles": "42630777.5050495326"
            },
            "orbiting_body": "Earth"
        },
        {
            "close_approach_date": "2017-03-24",
            "close_approach_date_full": "2017-Mar-24 03:43",
            "epoch_date_close_approach": 1490326980000,
            "relative_velocity": {
                "kilometers_per_second": "12.499250205",
                "kilometers_per_hour": "44997.3007381368",
                "miles_per_hour": "27959.5727836495"
            },
            "miss_distance": {
                "astronomical": "0.0745142344",
                "lunar": "28.9860371816",
                "kilometers": "11147170.750920728",
                "miles": "6926530.7171249264"
            },
            "orbiting_body": "Earth"
        },
        {
            "close_approach_date": "2021-03-22",
            "close_approach_date_full": "2021-Mar-22 13:05",
            "epoch_date_close_approach": 1616418300000,
            "relative_velocity": {
                "kilometers_per_second": "13.8884347097",
                "kilometers_per_hour": "49998.3649550064",
                "miles_per_hour": "31067.0396021816"
            },
            "miss_distance": {
                "astronomical": "0.3168832539",
                "lunar": "123.2675857671",
                "kilometers": "47405059.822109193",
                "miles": "29456138.2741771434"
            },
            "orbiting_body": "Earth"
        }
    ],
    "orbital_data": {
        "orbit_id": "12",
        "orbit_determination_date": "2018-02-10 07:08:48",
        "first_observation_date": "2017-03-17",
        "last_observation_date": "2017-04-02",
        "data_arc_in_days": 16,
        "observations_used": 79,
        "orbit_uncertainty": "7",
        "minimum_orbit_intersection": ".0741296",
        "jupiter_tisserand_invariant": "5.205",
        "epoch_osculation": "2459000.5",
        "eccentricity": ".1249728223813264",
        "semi_major_axis": "1.201050255428133",
        "inclination": "23.79372882678408",
        "ascending_node_longitude": "4.461758009035394",
        "orbital_period": "480.7731404412051",
        "perihelion_distance": "1.050951615185466",
        "perihelion_argument": "145.2223585563478",
        "aphelion_distance": "1.351148895670799",
        "perihelion_time": "2458763.440487130165",
        "mean_anomaly": "177.50871971513",
        "mean_motion": ".74879391071978",
        "equinox": "J2000",
        "orbit_class": {
            "orbit_class_type": "AMO",
            "orbit_class_description": "Near-Earth asteroid orbits similar to that of 1221 Amor",
            "orbit_class_range": "1.017 AU < q (perihelion) < 1.3 AU"
        }
    },
    "is_sentry_object": false
}